CCSDS_OMM_VERS = 2.0
CREATION_DATE  = 
ORIGINATOR     = 

OBJECT_NAME    = STARLINK-36598
OBJECT_ID      = 2026-033Z
CENTER_NAME    = EARTH
REF_FRAME      = TEME
TIME_SYSTEM    = UTC
MEAN_ELEMENT_THEORY = SGP/SGP4

EPOCH          = 2026-02-23T16:00:03.000096
MEAN_MOTION    = 15.92241859
ECCENTRICITY   = .0001912
INCLINATION    = 42.9996
RA_OF_ASC_NODE = 357.3627
ARG_OF_PERICENTER = 256.8814
MEAN_ANOMALY   = 74.5689

EPHEMERIS_TYPE = 0
CLASSIFICATION_TYPE = U
NORAD_CAT_ID   = 67844
ELEMENT_SET_NO = 999
REV_AT_EPOCH   = 241
BSTAR          = -.49417E-2
MEAN_MOTION_DOT = -.1713163E-1
MEAN_MOTION_DDOT = .81228E-3

CCSDS_OMM_VERS = 2.0
CREATION_DATE  = 
ORIGINATOR     = 

OBJECT_NAME    = STARLINK-36606
OBJECT_ID      = 2026-033AA
CENTER_NAME    = EARTH
REF_FRAME      = TEME
TIME_SYSTEM    = UTC
MEAN_ELEMENT_THEORY = SGP/SGP4

EPOCH          = 2026-02-23T16:00:03.000096
MEAN_MOTION    = 15.92404481
ECCENTRICITY   = .0001863
INCLINATION    = 42.9995
RA_OF_ASC_NODE = 357.3570
ARG_OF_PERICENTER = 257.1806
MEAN_ANOMALY   = 76.4611

EPHEMERIS_TYPE = 0
CLASSIFICATION_TYPE = U
NORAD_CAT_ID   = 67845
ELEMENT_SET_NO = 999
REV_AT_EPOCH   = 241
BSTAR          = -.48753E-2
MEAN_MOTION_DOT = -.1704664E-1
MEAN_MOTION_DDOT = .80614E-3

CCSDS_OMM_VERS = 2.0
CREATION_DATE  = 
ORIGINATOR     = 

OBJECT_NAME    = STARLINK-36658
OBJECT_ID      = 2026-033AB
CENTER_NAME    = EARTH
REF_FRAME      = TEME
TIME_SYSTEM    = UTC
MEAN_ELEMENT_THEORY = SGP/SGP4

EPOCH          = 2026-02-23T16:00:03.000096
MEAN_MOTION    = 15.92559100
ECCENTRICITY   = .0001889
INCLINATION    = 42.9995
RA_OF_ASC_NODE = 357.3512
ARG_OF_PERICENTER = 260.9266
MEAN_ANOMALY   = 75.0974

EPHEMERIS_TYPE = 0
CLASSIFICATION_TYPE = U
NORAD_CAT_ID   = 67846
ELEMENT_SET_NO = 999
REV_AT_EPOCH   = 241
BSTAR          = -.4808E-2
MEAN_MOTION_DOT = -.1694932E-1
MEAN_MOTION_DDOT = .79888E-3

CCSDS_OMM_VERS = 2.0
CREATION_DATE  = 
ORIGINATOR     = 

OBJECT_NAME    = STARLINK-36618
OBJECT_ID      = 2026-033AC
CENTER_NAME    = EARTH
REF_FRAME      = TEME
TIME_SYSTEM    = UTC
MEAN_ELEMENT_THEORY = SGP/SGP4

EPOCH          = 2026-02-23T16:00:03.000096
MEAN_MOTION    = 16.04758113
ECCENTRICITY   = .0002364
INCLINATION    = 42.9927
RA_OF_ASC_NODE = 357.0475
ARG_OF_PERICENTER = 249.8208
MEAN_ANOMALY   = 205.0668

EPHEMERIS_TYPE = 0
CLASSIFICATION_TYPE = U
NORAD_CAT_ID   = 67847
ELEMENT_SET_NO = 999
REV_AT_EPOCH   = 241
BSTAR          = -.26066E-3
MEAN_MOTION_DOT = -.187379E-2
MEAN_MOTION_DDOT = .21883E-4

CCSDS_OMM_VERS = 2.0
CREATION_DATE  = 
ORIGINATOR     = 

OBJECT_NAME    = STARLINK-36660
OBJECT_ID      = 2026-033AD
CENTER_NAME    = EARTH
REF_FRAME      = TEME
TIME_SYSTEM    = UTC
MEAN_ELEMENT_THEORY = SGP/SGP4

EPOCH          = 2026-02-23T16:00:03.000096
MEAN_MOTION    = 15.92715450
ECCENTRICITY   = .000185
INCLINATION    = 42.9994
RA_OF_ASC_NODE = 357.3452
ARG_OF_PERICENTER = 256.5706
MEAN_ANOMALY   = 81.7291

EPHEMERIS_TYPE = 0
CLASSIFICATION_TYPE = U
NORAD_CAT_ID   = 67848
ELEMENT_SET_NO = 999
REV_AT_EPOCH   = 241
BSTAR          = -.47469E-2
MEAN_MOTION_DOT = -.1687251E-1
MEAN_MOTION_DDOT = .79343E-3

CCSDS_OMM_VERS = 2.0
CREATION_DATE  = 
ORIGINATOR     = 

OBJECT_NAME    = STARLINK-36602
OBJECT_ID      = 2026-033AE
CENTER_NAME    = EARTH
REF_FRAME      = TEME
TIME_SYSTEM    = UTC
MEAN_ELEMENT_THEORY = SGP/SGP4

EPOCH          = 2026-02-23T16:00:03.000096
MEAN_MOTION    = 15.92875294
ECCENTRICITY   = .0001917
INCLINATION    = 42.9993
RA_OF_ASC_NODE = 357.3392
ARG_OF_PERICENTER = 257.2472
MEAN_ANOMALY   = 83.3546

EPHEMERIS_TYPE = 0
CLASSIFICATION_TYPE = U
NORAD_CAT_ID   = 67849
ELEMENT_SET_NO = 999
REV_AT_EPOCH   = 241
BSTAR          = -.47072E-2
MEAN_MOTION_DOT = -.1687265E-1
MEAN_MOTION_DDOT = .79469E-3

